NORAD_CAT_ID,OBJECT_NAME,OBJECT_TYPE,EPOCH,MEAN_MOTION,ECCENTRICITY,INCLINATION,RA_OF_ASC_NODE,ARG_OF_PERICENTER,MEAN_ANOMALY,BSTAR,MEAN_MOTION_DOT,MEAN_MOTION_DDOT,TLE_LINE0,TLE_LINE1,TLE_LINE2,SEMIMAJOR_AXIS,PERIOD,APOGEE,PERIGEE,DECAYED
52459.0,STARLINK-3856,PAYLOAD,2023-10-09 19:43:37,15.08850896,0.0001703,53.2186,57.9743,94.3799,265.7388,0.00021751,3.176e-05,0.0,0 STARLINK-3856,1 52459U 22049J   23282.82196696  .00003176  00000-0  21751-3 0  9992,2 52459  53.2186  57.9743 0001703  94.3799 265.7388 15.08850896 79273,6917.847,95.437,540.89,538.534,0.0
52459.0,STARLINK-3856,PAYLOAD,2023-10-10 13:12:52,15.08841777,0.0002094,53.2178,54.7021,74.6806,285.4417,0.00015456,2.173e-05,0.0,0 STARLINK-3856,1 52459U 22049J   23283.55061108  .00002173  00000-0  15456-3 0  9993,2 52459  53.2178  54.7021 0002094  74.6806 285.4417 15.08841777 79384,6917.875,95.437,541.189,538.291,0.0
52459.0,STARLINK-3856,PAYLOAD,2023-10-10 17:59:01,15.08853075,0.0001539,53.2176,53.8111,78.7739,281.3426,0.00022478,3.292e-05,0.0,0 STARLINK-3856,1 52459U 22049J   23283.74932447  .00003292  00000-0  22478-3 0  9992,2 52459  53.2176  53.8111 0001539  78.7739 281.3426 15.08853075 79418,6917.84,95.437,540.77,538.641,0.0
52459.0,STARLINK-3856,PAYLOAD,2023-10-10 21:09:47,15.08863231,0.0001275,53.2173,53.2137,86.8581,273.2557,0.00040327,6.14e-05,0.0,0 STARLINK-3856,1 52459U 22049J   23283.88179783  .00006140  00000-0  40327-3 0  9991,2 52459  53.2173  53.2137 0001275  86.8581 273.2557 15.08863231 79431,6917.809,95.436,540.556,538.792,0.0
52459.0,STARLINK-3856,PAYLOAD,2023-10-11 13:03:40,15.08822549,0.0001401,53.2161,50.2491,47.0558,313.0552,-0.00020328,-3.52e-05,0.0,0 STARLINK-3856,1 52459U 22049J   23284.54421594 -.00003520  00000-0 -20328-3 0  9995,2 52459  53.2161  50.2491 0001401  47.0558 313.0552 15.08822549 79538,6917.934,95.439,540.768,538.83,0.0
52459.0,STARLINK-3856,PAYLOAD,2023-10-11 14:39:03,15.088386,0.0001486,53.2169,49.9445,94.132,265.9842,0.00027792,4.138e-05,0.0,0 STARLINK-3856,1 52459U 22049J   23284.61045145  .00004138  00000-0  27792-3 0  9993,2 52459  53.2169  49.9445 0001486  94.1320 265.9842 15.08838600 79388,6917.885,95.438,540.778,538.722,0.0
52459.0,STARLINK-3856,PAYLOAD,2023-10-11 17:49:49,15.08844268,0.0001441,53.2164,49.3504,98.553,261.5626,0.0013834,0.000218,0.0,0 STARLINK-3856,1 52459U 22049J   23284.74293254  .00021800  00000-0  13834-2 0  9999,2 52459  53.2164  49.3504 0001441  98.5530 261.5626 15.08844268 79564,6917.867,95.437,540.729,538.735,0.0
52459.0,STARLINK-3856,PAYLOAD,2023-10-12 14:29:50,15.08850003,0.0001546,53.2168,45.4856,82.7832,277.3336,0.00087016,0.00013591,0.0,0 STARLINK-3856,1 52459U 22049J   23285.60405597  .00013591  00000-0  87016-3 0  9992,2 52459  53.2168  45.4856 0001546  82.7832 277.3336 15.08850003 79535,6917.85,95.437,540.784,538.645,0.0
52459.0,STARLINK-3856,PAYLOAD,2023-10-12 19:15:59,15.08871067,0.000149,53.2174,44.5912,83.0681,277.0481,0.0015367,0.00024274,0.0,0 STARLINK-3856,1 52459U 22049J   23285.80277146  .00024274  00000-0  15367-2 0  9990,2 52459  53.2174  44.5912 0001490  83.0681 277.0481 15.08871067 79721,6917.785,95.436,540.681,538.62,0.0
52459.0,STARLINK-3856,PAYLOAD,2023-10-13 12:45:14,15.0884979,0.0001423,53.218,41.3222,78.0642,282.051,0.0017213,0.0002722,0.0,0 STARLINK-3856,1 52459U 22049J   23286.53141713  .00027220  00000-0  17213-2 0  9997,2 52459  53.2180  41.3222 0001423  78.0642 282.0510 15.08849790 79833,6917.85,95.437,540.7,538.731,0.0
52459.0,STARLINK-3856,PAYLOAD,2023-10-13 14:20:37,15.08854368,0.0001388,53.218,41.0248,83.5973,276.5177,0.0020201,0.00032021,0.0,0 STARLINK-3856,1 52459U 22049J   23286.59765635  .00032021  00000-0  20201-2 0  9994,2 52459  53.2180  41.0248 0001388  83.5973 276.5177 15.08854368 79683,6917.836,95.437,540.662,538.741,0.0
52459.0,STARLINK-3856,PAYLOAD,2023-10-14 11:00:37,15.08859719,0.0001432,53.219,37.1571,91.0857,269.0299,0.0011443,0.0001798,0.0,0 STARLINK-3856,1 52459U 22049J   23287.45877279  .00017980  00000-0  11443-2 0  9993,2 52459  53.2190  37.1571 0001432  91.0857 269.0299 15.08859719 79973,6917.82,95.436,540.676,538.694,0.0
52459.0,STARLINK-3856,PAYLOAD,2023-10-14 14:11:24,15.08857163,0.0001463,53.2189,36.562,87.8694,272.2466,0.0012205,0.00019199,0.0,0 STARLINK-3856,1 52459U 22049J   23287.59125214  .00019199  00000-0  12205-2 0  9994,2 52459  53.2189  36.5620 0001463  87.8694 272.2466 15.08857163 79833,6917.828,95.436,540.705,538.681,0.0
52459.0,STARLINK-3856,PAYLOAD,2023-10-15 12:26:48,15.08826972,0.0001361,53.218,32.4021,101.0663,259.0482,-4.9295e-05,-1.072e-05,0.0,0 STARLINK-3856,1 52459U 22049J   23288.51862143 -.00001072  00000-0 -49295-4 0  9990,2 52459  53.2180  32.4021 0001361 101.0663 259.0482 15.08826972 80136,6917.92,95.438,540.727,538.844,0.0
52459.0,STARLINK-3856,PAYLOAD,2023-10-15 14:02:12,15.08831909,0.0001306,53.2178,32.1052,97.8049,262.3091,-5.6827e-05,-1.192e-05,0.0,0 STARLINK-3856,1 52459U 22049J   23288.58486152 -.00001192  00000-0 -56827-4 0  9991,2 52459  53.2178  32.1052 0001306  97.8049 262.3091 15.08831909 79983,6917.905,95.438,540.674,538.867,0.0
52459.0,STARLINK-3856,PAYLOAD,2023-10-16 07:31:26,15.08837705,0.000134,53.2182,28.8336,100.5776,259.5367,0.00010899,1.447e-05,0.0,0 STARLINK-3856,1 52459U 22049J   23289.31350318  .00001447  00000-0  10899-3 0  9996,2 52459  53.2182  28.8336 0001340 100.5776 259.5367 15.08837705 80258,6917.887,95.438,540.679,538.825,0.0
52459.0,STARLINK-3856,PAYLOAD,2023-10-16 12:17:35,15.08845542,0.0001373,53.2185,27.9424,97.015,263.0998,0.00029478,4.407e-05,0.0,0 STARLINK-3856,1 52459U 22049J   23289.51222082  .00004407  00000-0  29478-3 0  9996,2 52459  53.2185  27.9424 0001373  97.0150 263.0998 15.08845542 80125,6917.863,95.437,540.678,538.779,0.0
52459.0,STARLINK-3856,PAYLOAD,2023-10-17 12:08:22,15.08853354,0.0001883,53.2178,23.4824,127.289,232.8274,0.00042908,6.55e-05,0.0,0 STARLINK-3856,1 52459U 22049J   23290.50582102  .00006550  00000-0  42908-3 0  9993,2 52459  53.2178  23.4824 0001883 127.2890 232.8274 15.08853354 80430,6917.84,95.437,541.007,538.402,0.0
52459.0,STARLINK-3856,PAYLOAD,2023-10-17 23:16:05,15.08843223,0.0002174,53.2176,21.3992,90.3136,269.8105,0.00027809,4.141e-05,0.0,0 STARLINK-3856,1 52459U 22049J   23290.96950431  .00004141  00000-0  27809-3 0  9994,2 52459  53.2176  21.3992 0002174  90.3136 269.8105 15.08843223 80345,6917.871,95.437,541.239,538.232,0.0
52459.0,STARLINK-3856,PAYLOAD,2023-10-18 11:59:10,15.08841578,0.0001513,53.2168,19.0226,90.2138,269.9027,0.00030171,4.517e-05,0.0,0 STARLINK-3856,1 52459U 22049J   23291.49942329  .00004517  00000-0  30171-3 0  9993,2 52459  53.2168  19.0226 0001513  90.2138 269.9027 15.08841578 80588,6917.876,95.437,540.787,538.694,0.0
52459.0,STARLINK-3856,PAYLOAD,2023-10-19 11:49:56,15.08857237,0.0001612,53.2165,14.5615,90.5351,269.5826,0.00059321,9.17e-05,0.0,0 STARLINK-3856,1 52459U 22049J   23292.49301808  .00009170  00000-0  59321-3 0  9993,2 52459  53.2165  14.5615 0001612  90.5351 269.5826 15.08857237 80578,6917.828,95.436,540.808,538.578,0.0
52459.0,STARLINK-3856,PAYLOAD,2023-10-19 22:57:38,15.08851098,0.0001776,53.217,12.481,83.9768,276.1426,0.00023175,3.403e-05,0.0,0 STARLINK-3856,1 52459U 22049J   23292.95669742  .00003403  00000-0  23175-3 0  9999,2 52459  53.2170  12.4810 0001776  83.9768 276.1426 15.08851098 80802,6917.846,95.437,540.94,538.483,0.0
52459.0,STARLINK-3856,PAYLOAD,2023-10-20 11:40:44,15.08833413,0.0001434,53.2172,10.101,93.86,266.2557,-0.00011718,-2.152e-05,0.0,0 STARLINK-3856,1 52459U 22049J   23293.48662267 -.00002152  00000-0 -11718-3 0  9995,2 52459  53.2172  10.1010 0001434  93.8600 266.2557 15.08833413 80881,6917.901,95.438,540.758,538.773,0.0
52459.0,STARLINK-3856,PAYLOAD,2023-10-21 11:31:31,15.08851746,0.0001361,53.2178,5.6402,97.2069,262.9078,0.001068,0.00016755,0.0,0 STARLINK-3856,1 52459U 22049J   23294.48022592  .00016755  00000-0  10680-2 0  9995,2 52459  53.2178   5.6402 0001361  97.2069 262.9078 15.08851746 81035,6917.844,95.437,540.651,538.768,0.0
52459.0,STARLINK-3856,PAYLOAD,2023-10-22 05:00:45,15.08851152,0.0001338,53.218,2.3708,85.939,274.1755,0.00044006,6.725e-05,0.0,0 STARLINK-3856,1 52459U 22049J   23295.20886435  .00006725  00000-0  44006-3 0  9996,2 52459  53.2180   2.3708 0001338  85.9390 274.1755 15.08851152 81146,6917.846,95.437,540.637,538.786,0.0
52459.0,STARLINK-3856,PAYLOAD,2023-10-22 11:22:18,15.08851833,0.0001292,53.2186,1.1824,78.9884,281.1253,0.00036543,5.535e-05,0.0,0 STARLINK-3856,1 52459U 22049J   23295.47382301  .00005535  00000-0  36543-3 0  9993,2 52459  53.2186   1.1824 0001292  78.9884 281.1253 15.08851833 81021,6917.844,95.437,540.603,538.815,0.0
52459.0,STARLINK-3856,PAYLOAD,2023-10-22 20:54:37,15.08844766,0.0001337,53.2183,359.3952,76.327,283.7871,0.00039688,6.035e-05,0.0,0 STARLINK-3856,1 52459U 22049J   23295.87126267  .00006035  00000-0  39688-3 0  9993,2 52459  53.2183 359.3952 0001337  76.3270 283.7871 15.08844766 81086,6917.866,95.437,540.656,538.806,0.0
52459.0,STARLINK-3856,PAYLOAD,2023-10-23 11:13:05,15.08836885,0.0001429,53.2188,356.7203,86.48,273.6355,0.00016675,2.367e-05,0.0,0 STARLINK-3856,1 52459U 22049J   23296.46742777  .00002367  00000-0  16675-3 0  9994,2 52459  53.2188 356.7203 0001429  86.4800 273.6355 15.08836885 81330,6917.89,95.438,540.743,538.766,0.0
52459.0,STARLINK-3856,PAYLOAD,2023-10-23 20:45:24,15.08832551,0.0001527,53.2194,354.9385,90.1152,270.0015,6.0006e-05,6.67e-06,0.0,0 STARLINK-3856,1 52459U 22049J   23296.86487175  .00000667  00000-0  60006-4 0  9995,2 52459  53.2194 354.9385 0001527  90.1152 270.0015 15.08832551 81238,6917.903,95.438,540.825,538.712,0.0
52459.0,STARLINK-3856,PAYLOAD,2023-10-24 11:03:53,15.08840051,0.0001449,53.2185,352.2611,89.0235,271.0923,0.00015475,2.176e-05,0.0,0 STARLINK-3856,1 52459U 22049J   23297.46103161  .00002176  00000-0  15475-3 0  9998,2 52459  53.2185 352.2611 0001449  89.0235 271.0923 15.08840051 81326,6917.88,95.438,540.748,538.743,0.0
